{
  "norad_id": 60128,
  "name": "STARLINK-31813",
  "history": [
    {
      "epoch": "2026-03-28T20:59:36.430944Z",
      "apogee_km": 475.9546702736552,
      "perigee_km": 474.50778717320827,
      "latitude_deg": -3.0506033167870677e-05,
      "longitude_deg": 156.41787527432672,
      "height_km": 476.2983002783271,
      "semi_major_axis_km": 6853.3682287234315,
      "eccentricity": 0.00010556,
      "inclination_deg": 53.1593,
      "raan_deg": 297.6086,
      "arg_perigee_deg": 103.4885,
      "mean_anomaly_deg": 256.6233,
      "mean_motion_rev_day": 15.30194588
    },
    {
      "epoch": "2026-03-30T01:12:34.236864Z",
      "apogee_km": 475.8193859441426,
      "perigee_km": 474.61621097572424,
      "latitude_deg": 2.0412075138093708e-05,
      "longitude_deg": 86.56016343635481,
      "height_km": 476.055099716641,
      "semi_major_axis_km": 6853.354798459933,
      "eccentricity": 8.778e-05,
      "inclination_deg": 53.158,
      "raan_deg": 292.1505,
      "arg_perigee_deg": 84.1717,
      "mean_anomaly_deg": 275.9384,
      "mean_motion_rev_day": 15.30199086
    },
    {
      "epoch": "2026-03-30T13:45:00.199872Z",
      "apogee_km": 475.7297358765245,
      "perigee_km": 474.74312423753327,
      "latitude_deg": -3.8019470782340307e-05,
      "longitude_deg": -104.49058059039118,
      "height_km": 476.0359262905234,
      "semi_major_axis_km": 6853.373430057029,
      "eccentricity": 7.198e-05,
      "inclination_deg": 53.1586,
      "raan_deg": 289.723,
      "arg_perigee_deg": 78.4009,
      "mean_anomaly_deg": 281.7072,
      "mean_motion_rev_day": 15.30192846
    },
    {
      "epoch": "2026-03-30T21:35:15.300096Z",
      "apogee_km": 475.72048578548765,
      "perigee_km": 474.54007902876674,
      "latitude_deg": -1.711670822066138e-05,
      "longitude_deg": 136.10784193017054,
      "height_km": 476.06596953505925,
      "semi_major_axis_km": 6853.267282407127,
      "eccentricity": 8.612e-05,
      "inclination_deg": 53.1585,
      "raan_deg": 288.2062,
      "arg_perigee_deg": 93.6146,
      "mean_anomaly_deg": 266.4953,
      "mean_motion_rev_day": 15.30228397
    }
  ]
}